FLOCK 4G-21             
1 62651U 25009AU  26068.19487675  .00013648  00000+0  49619-3 0  9998
2 62651  97.4032 151.1274 0000465 329.5782  30.5431 15.28381075 63677
STARLINK-36114          
1 66870U 25281Y   26068.16680333  .00028498  00000+0  10411-2 0  9996
2 66870  43.0035 346.5907 0001738 277.5261  82.5393 15.27579451 16099
